{
  "type": "FeatureCollection",
  "features": [
    {
      "type": "Feature",
      "properties": {
        "norad_id": 30013,
        "name": "FENGYUN 1C DEB",
        "group": "fengyun-1c-debris",
        "lat": 79.35812311073492,
        "lon": -61.80218173145937,
        "alt_km": 848.1909757642188,
        "timestamp": "2025-12-08T21:31:04.940966+00:00",
        "meta_object_name": "FENGYUN 1C DEB",
        "meta_object_id": "1999-025MN",
        "meta_epoch": "2025-12-08T14:47:00.551040",
        "meta_mean_motion": 13.87821821,
        "meta_eccentricity": 0.01283405,
        "meta_inclination": 99.5803,
        "meta_ra_of_asc_node": 1.9123,
        "meta_arg_of_pericenter": 54.9547,
        "meta_mean_anomaly": 68.448,
        "meta_ephemeris_type": 0,
        "meta_classification_type": "U",
        "meta_norad_cat_id": 30013,
        "meta_element_set_no": 999,
        "meta_rev_at_epoch": 95624,
        "meta_bstar": 0.00040977038,
        "meta_mean_motion_dot": 4.73e-06,
        "meta_mean_motion_ddot": 0,
        "tle_line1": "1 30013U 99025MN  25342.61597860  .00000473  00000+0  40977-3 0  9993",
        "tle_line2": "2 30013  99.5803   1.9123 0128340  54.9547  68.4480 13.87821821956248"
      },
      "geometry": {
        "type": "Point",
        "coordinates": [
          -61.80218173145937,
          79.35812311073492
        ]
      }
    },
    {
      "type": "Feature",
      "properties": {
        "norad_id": 30015,
        "name": "FENGYUN 1C DEB",
        "group": "fengyun-1c-debris",
        "lat": 63.092738100457574,
        "lon": -33.13992026537622,
        "alt_km": 773.94171926544,
        "timestamp": "2025-12-08T21:31:04.940977+00:00",
        "meta_object_name": "FENGYUN 1C DEB",
        "meta_object_id": "1999-025MQ",
        "meta_epoch": "2025-12-08T11:51:55.480896",
        "meta_mean_motion": 14.30780957,
        "meta_eccentricity": 0.0038436,
        "meta_inclination": 99.228,
        "meta_ra_of_asc_node": 345.1172,
        "meta_arg_of_pericenter": 137.021,
        "meta_mean_anomaly": 17.5962,
        "meta_ephemeris_type": 0,
        "meta_classification_type": "U",
        "meta_norad_cat_id": 30015,
        "meta_element_set_no": 999,
        "meta_rev_at_epoch": 98112,
        "meta_bstar": 0.00099656641,
        "meta_mean_motion_dot": 2.584e-05,
        "meta_mean_motion_ddot": 0,
        "tle_line1": "1 30015U 99025MQ  25342.49439214  .00002584  00000+0  99657-3 0  9993",
        "tle_line2": "2 30015  99.2280 345.1172 0038436 137.0210  17.5962 14.30780957981127"
      },
      "geometry": {
        "type": "Point",
        "coordinates": [
          -33.13992026537622,
          63.092738100457574
        ]
      }
    },
    {
      "type": "Feature",
      "properties": {
        "norad_id": 30016,
        "name": "FENGYUN 1C DEB",
        "group": "fengyun-1c-debris",
        "lat": -72.20486474369295,
        "lon": 145.2126488321601,
        "alt_km": 672.592677489889,
        "timestamp": "2025-12-08T21:31:04.940987+00:00",
        "meta_object_name": "FENGYUN 1C DEB",
        "meta_object_id": "1999-025MR",
        "meta_epoch": "2025-12-08T12:55:39.657216",
        "meta_mean_motion": 14.78331125,
        "meta_eccentricity": 0.00472074,
        "meta_inclination": 98.9055,
        "meta_ra_of_asc_node": 354.0602,
        "meta_arg_of_pericenter": 54.0339,
        "meta_mean_anomaly": 96.8734,
        "meta_ephemeris_type": 0,
        "meta_classification_type": "U",
        "meta_norad_cat_id": 30016,
        "meta_element_set_no": 999,
        "meta_rev_at_epoch": 99391,
        "meta_bstar": 0.0024526146,
        "meta_mean_motion_dot": 0.0001815,
        "meta_mean_motion_ddot": 0,
        "tle_line1": "1 30016U 99025MR  25342.53865344  .00018150  00000+0  24526-2 0  9994",
        "tle_line2": "2 30016  98.9055 354.0602 0047207  54.0339  96.8734 14.78331125993915"
      },
      "geometry": {
        "type": "Point",
        "coordinates": [
          145.2126488321601,
          -72.20486474369295
        ]
      }
    },
    {
      "type": "Feature",
      "properties": {
        "norad_id": 30017,
        "name": "FENGYUN 1C DEB",
        "group": "fengyun-1c-debris",
        "lat": -79.74030938600526,
        "lon": 85.62181858241843,
        "alt_km": 689.2472990926999,
        "timestamp": "2025-12-08T21:31:04.940997+00:00",
        "meta_object_name": "FENGYUN 1C DEB",
        "meta_object_id": "1999-025MS",
        "meta_epoch": "2025-12-08T15:20:27.180672",
        "meta_mean_motion": 14.61182312,
        "meta_eccentricity": 0.02172808,
        "meta_inclination": 98.7546,
        "meta_ra_of_asc_node": 26.99,
        "meta_arg_of_pericenter": 187.694,
        "meta_mean_anomaly": 172.0908,
        "meta_ephemeris_type": 0,
        "meta_classification_type": "U",
        "meta_norad_cat_id": 30017,
        "meta_element_set_no": 999,
        "meta_rev_at_epoch": 384,
        "meta_bstar": 0.0003254598,
        "meta_mean_motion_dot": 2.176e-05,
        "meta_mean_motion_ddot": 0,
        "tle_line1": "1 30017U 99025MS  25342.63920348  .00002176  00000+0  32546-3 0  9995",
        "tle_line2": "2 30017  98.7546  26.9900 0217280 187.6940 172.0908 14.61182312  3844"
      },
      "geometry": {
        "type": "Point",
        "coordinates": [
          85.62181858241843,
          -79.74030938600526
        ]
      }
    },
    {
      "type": "Feature",
      "properties": {
        "norad_id": 30018,
        "name": "FENGYUN 1C DEB",
        "group": "fengyun-1c-debris",
        "lat": 39.745869910354735,
        "lon": -107.40060467323431,
        "alt_km": 616.4635742808496,
        "timestamp": "2025-12-08T21:31:04.941008+00:00",
        "meta_object_name": "FENGYUN 1C DEB",
        "meta_object_id": "1999-025MT",
        "meta_epoch": "2025-12-08T04:49:47.524800",
        "meta_mean_motion": 14.73095652,
        "meta_eccentricity": 0.01166606,
        "meta_inclination": 98.7564,
        "meta_ra_of_asc_node": 64.4859,
        "meta_arg_of_pericenter": 209.7164,
        "meta_mean_anomaly": 205.7952,
        "meta_ephemeris_type": 0,
        "meta_classification_type": "U",
        "meta_norad_cat_id": 30018,
        "meta_element_set_no": 999,
        "meta_rev_at_epoch": 370,
        "meta_bstar": 0.0011961442,
        "meta_mean_motion_dot": 8.523e-05,
        "meta_mean_motion_ddot": 0,
        "tle_line1": "1 30018U 99025MT  25342.20124450  .00008523  00000+0  11961-2 0  9998",
        "tle_line2": "2 30018  98.7564  64.4859 0116660 209.7164 205.7952 14.73095652  3700"
      },
      "geometry": {
        "type": "Point",
        "coordinates": [
          -107.40060467323431,
          39.745869910354735
        ]
      }
    },
    {
      "type": "Feature",
      "properties": {
        "norad_id": 30020,
        "name": "FENGYUN 1C DEB",
        "group": "fengyun-1c-debris",
        "lat": 70.78674468064844,
        "lon": -166.64951768389534,
        "alt_km": 750.9185387067664,
        "timestamp": "2025-12-08T21:31:04.941018+00:00",
        "meta_object_name": "FENGYUN 1C DEB",
        "meta_object_id": "1999-025MV",
        "meta_epoch": "2025-12-08T13:02:10.427136",
        "meta_mean_motion": 14.04454211,
        "meta_eccentricity": 0.0184015,
        "meta_inclination": 98.8469,
        "meta_ra_of_asc_node": 346.4608,
        "meta_arg_of_pericenter": 82.1852,
        "meta_mean_anomaly": 38.1362,
        "meta_ephemeris_type": 0,
        "meta_classification_type": "U",
        "meta_norad_cat_id": 30020,
        "meta_element_set_no": 999,
        "meta_rev_at_epoch": 96599,
        "meta_bstar": 0.00096039372,
        "meta_mean_motion_dot": 1.739e-05,
        "meta_mean_motion_ddot": 0,
        "tle_line1": "1 30020U 99025MV  25342.54317624  .00001739  00000+0  96039-3 0  9997",
        "tle_line2": "2 30020  98.8469 346.4608 0184015  82.1852  38.1362 14.04454211965994"
      },
      "geometry": {
        "type": "Point",
        "coordinates": [
          -166.64951768389534,
          70.78674468064844
        ]
      }
    },
    {
      "type": "Feature",
      "properties": {
        "norad_id": 30021,
        "name": "FENGYUN 1C DEB",
        "group": "fengyun-1c-debris",
        "lat": -77.93500223657922,
        "lon": 107.83428845453788,
        "alt_km": 841.9201153943695,
        "timestamp": "2025-12-08T21:31:04.941028+00:00",
        "meta_object_name": "FENGYUN 1C DEB",
        "meta_object_id": "1999-025MW",
        "meta_epoch": "2025-12-08T14:00:45.578304",
        "meta_mean_motion": 14.04888039,
        "meta_eccentricity": 0.00720648,
        "meta_inclination": 98.835,
        "meta_ra_of_asc_node": 334.2202,
        "meta_arg_of_pericenter": 298.8529,
        "meta_mean_anomaly": 182.6142,
        "meta_ephemeris_type": 0,
        "meta_classification_type": "U",
        "meta_norad_cat_id": 30021,
        "meta_element_set_no": 999,
        "meta_rev_at_epoch": 96873,
        "meta_bstar": 0.00033486387,
        "meta_mean_motion_dot": 5.07e-06,
        "meta_mean_motion_ddot": 0,
        "tle_line1": "1 30021U 99025MW  25342.58386086  .00000507  00000+0  33486-3 0  9999",
        "tle_line2": "2 30021  98.8350 334.2202 0072064 298.8529 182.6142 14.04888039968731"
      },
      "geometry": {
        "type": "Point",
        "coordinates": [
          107.83428845453788,
          -77.93500223657922
        ]
      }
    }
  ]
}